NORAD_CAT_ID,OBJECT_NAME,OBJECT_TYPE,EPOCH,MEAN_MOTION,ECCENTRICITY,INCLINATION,RA_OF_ASC_NODE,ARG_OF_PERICENTER,MEAN_ANOMALY,BSTAR,MEAN_MOTION_DOT,MEAN_MOTION_DDOT,TLE_LINE0,TLE_LINE1,TLE_LINE2,SEMIMAJOR_AXIS,PERIOD,APOGEE,PERIGEE,DECAYED
53254.0,STARLINK-4134,PAYLOAD,2024-02-06 05:13:06,15.0884214,0.0001733,53.219,17.0019,96.693,263.426,9.3476e-05,1.2e-05,0.0,0 STARLINK-4134,1 53254U 22086N   24037.21743845  .00001200  00000-0  93476-4 0  9993,2 53254  53.2190  17.0019 0001733  96.6930 263.4260 15.08842140 85779,6917.874,95.437,540.938,538.54,0.0
53254.0,STARLINK-4134,PAYLOAD,2024-02-07 03:28:31,15.08837561,0.0001782,53.2188,12.8387,113.3625,246.7555,2.5246e-05,1.14e-06,0.0,0 STARLINK-4134,1 53254U 22086N   24038.14480421  .00000114  00000-0  25246-4 0  9997,2 53254  53.2188  12.8387 0001782 113.3625 246.7555 15.08837561 85917,6917.888,95.438,540.986,538.52,0.0
53254.0,STARLINK-4134,PAYLOAD,2024-02-07 14:36:13,15.08840326,0.0001637,53.2192,10.7588,103.5147,256.6027,2.8398e-05,1.64e-06,0.0,0 STARLINK-4134,1 53254U 22086N   24038.60848389  .00000164  00000-0  28398-4 0  9995,2 53254  53.2192  10.7588 0001637 103.5147 256.6027 15.08840326 86188,6917.879,95.438,540.877,538.612,0.0
53254.0,STARLINK-4134,PAYLOAD,2024-02-07 22:33:08,15.08841138,0.0001875,53.2194,9.2747,120.6619,239.4558,6.7316e-06,-1.81e-06,0.0,0 STARLINK-4134,1 53254U 22086N   24038.93968572 -.00000181  00000-0  67316-5 0  9992,2 53254  53.2194   9.2747 0001875 120.6619 239.4558 15.08841138 86234,6917.877,95.437,541.039,538.445,0.0
53254.0,STARLINK-4134,PAYLOAD,2024-02-08 04:54:41,15.08846338,0.0001635,53.2199,8.0862,108.4647,251.6523,6.6095e-05,7.64e-06,0.0,0 STARLINK-4134,1 53254U 22086N   24039.20464233  .00000764  00000-0  66095-4 0  9996,2 53254  53.2199   8.0862 0001635 108.4647 251.6523 15.08846338 86070,6917.861,95.437,540.857,538.595,0.0
53254.0,STARLINK-4134,PAYLOAD,2024-02-09 03:10:05,15.08829859,0.0001615,53.2202,3.9237,109.721,250.3957,0.00025918,3.838e-05,0.0,0 STARLINK-4134,1 53254U 22086N   24040.13200979  .00003838  00000-0  25918-3 0  9998,2 53254  53.2202   3.9237 0001615 109.7210 250.3957 15.08829859 86215,6917.911,95.438,540.894,538.659,0.0
53254.0,STARLINK-4134,PAYLOAD,2024-02-09 04:45:28,15.08845801,0.0001402,53.2185,3.623,96.0273,264.0879,0.000146,2.037e-05,0.0,0 STARLINK-4134,1 53254U 22086N   24040.19824331  .00002037  00000-0  14600-3 0  9994,2 53254  53.2185   3.6230 0001402  96.0273 264.0879 15.08845801 86227,6917.863,95.437,540.698,538.758,0.0
53254.0,STARLINK-4134,PAYLOAD,2024-02-10 03:00:52,15.08839273,0.0001518,53.2191,359.4587,77.3291,282.7871,2.1646e-05,5.7e-07,0.0,0 STARLINK-4134,1 53254U 22086N   24041.12561258  .00000057  00000-0  21646-4 0  9993,2 53254  53.2191 359.4587 0001518  77.3291 282.7871 15.08839273 86361,6917.883,95.438,540.798,538.697,0.0
53254.0,STARLINK-4134,PAYLOAD,2024-02-10 04:36:15,15.08843037,0.000166,53.2192,359.161,70.5267,289.5904,5.1066e-05,5.25e-06,0.0,0 STARLINK-4134,1 53254U 22086N   24041.19185037  .00000525  00000-0  51066-4 0  9996,2 53254  53.2192 359.1610 0001660  70.5267 289.5904 15.08843037 86570,6917.871,95.437,540.884,538.588,0.0
53254.0,STARLINK-4134,PAYLOAD,2024-02-11 04:27:02,15.08846758,0.0001706,53.2197,354.699,68.1092,292.0081,6.3989e-05,7.31e-06,0.0,0 STARLINK-4134,1 53254U 22086N   24042.18544843  .00000731  00000-0  63989-4 0  9996,2 53254  53.2197 354.6990 0001706  68.1092 292.0081 15.08846758 86529,6917.86,95.437,540.905,538.545,0.0
53254.0,STARLINK-4134,PAYLOAD,2024-02-11 20:20:54,15.08826265,0.0001838,53.2193,351.7296,66.5887,293.5298,0.00039026,5.926e-05,0.0,0 STARLINK-4134,1 53254U 22086N   24042.84785141  .00005926  00000-0  39026-3 0  9992,2 53254  53.2193 351.7296 0001838  66.5887 293.5298 15.08826265 86620,6917.922,95.438,541.059,538.516,0.0
53254.0,STARLINK-4134,PAYLOAD,2024-02-12 02:42:25,15.08869061,0.0001833,53.2186,350.5414,68.6347,291.484,-0.00014987,-2.675e-05,0.0,0 STARLINK-4134,1 53254U 22086N   24043.11279618 -.00002675  00000-0 -14987-3 0  9999,2 53254  53.2186 350.5414 0001833  68.6347 291.4840 15.08869061 86665,6917.792,95.436,540.925,538.389,0.0
53254.0,STARLINK-4134,PAYLOAD,2024-02-12 05:53:12,15.08848311,0.0001848,53.2173,349.946,63.6026,296.5155,0.00028478,4.248e-05,0.0,0 STARLINK-4134,1 53254U 22086N   24043.24528521  .00004248  00000-0  28478-3 0  9999,2 53254  53.2173 349.9460 0001848  63.6026 296.5155 15.08848311 86681,6917.855,95.437,540.998,538.442,0.0
53254.0,STARLINK-4134,PAYLOAD,2024-02-13 02:33:13,15.08836825,0.0001591,53.2186,346.0816,79.7454,280.3717,-3.8032e-05,-8.93e-06,0.0,0 STARLINK-4134,1 53254U 22086N   24044.10641106 -.00000893  00000-0 -38032-4 0  9992,2 53254  53.2186 346.0816 0001591  79.7454 280.3717 15.08836825 86813,6917.89,95.438,540.856,538.654,0.0
53254.0,STARLINK-4134,PAYLOAD,2024-02-13 05:43:59,15.08842311,0.0001461,53.2194,345.4742,97.8455,262.2703,1.655e-05,-2.5e-07,0.0,0 STARLINK-4134,1 53254U 22086N   24044.23888652 -.00000025  00000-0  16550-4 0  9992,2 53254  53.2194 345.4742 0001461  97.8455 262.2703 15.08842311 87037,6917.873,95.437,540.749,538.728,0.0
53254.0,STARLINK-4134,PAYLOAD,2024-02-13 20:02:28,15.08838216,0.0001434,53.2177,342.7998,121.5158,238.5975,-0.00015774,-2.797e-05,0.0,0 STARLINK-4134,1 53254U 22086N   24044.83504783 -.00002797  00000-0 -15774-3 0  9993,2 53254  53.2177 342.7998 0001434 121.5158 238.5975 15.08838216 87122,6917.886,95.438,540.743,538.759,0.0
53254.0,STARLINK-4134,PAYLOAD,2024-02-14 05:34:46,15.08849214,0.000204,53.2175,341.0167,131.1795,228.9374,5.4379e-05,5.78e-06,0.0,0 STARLINK-4134,1 53254U 22086N   24045.23248116  .00000578  00000-0  54379-4 0  9991,2 53254  53.2175 341.0167 0002040 131.1795 228.9374 15.08849214 86987,6917.852,95.437,541.128,538.306,0.0
53254.0,STARLINK-4134,PAYLOAD,2024-02-14 19:53:15,15.08834777,0.0001549,53.218,338.3423,115.1995,244.9158,5.7732e-06,-1.96e-06,0.0,0 STARLINK-4134,1 53254U 22086N   24045.82865420 -.00000196  00000-0  57732-5 0  9993,2 53254  53.2180 338.3423 0001549 115.1995 244.9158 15.08834777 87071,6917.896,95.438,540.833,538.69,0.0
53254.0,STARLINK-4134,PAYLOAD,2024-02-15 05:25:34,15.08841619,0.000112,53.2161,336.5602,87.2405,272.8716,0.00010144,1.327e-05,0.0,0 STARLINK-4134,1 53254U 22086N   24046.22609253  .00001327  00000-0  10144-3 0  9998,2 53254  53.2161 336.5602 0001120  87.2405 272.8716 15.08841619 87331,6917.875,95.437,540.515,538.966,0.0
53254.0,STARLINK-4134,PAYLOAD,2024-02-15 22:54:49,15.08833624,0.0001496,53.2164,333.2911,91.504,268.6123,-2.1104e-05,-6.24e-06,0.0,0 STARLINK-4134,1 53254U 22086N   24046.95473947 -.00000624  00000-0 -21104-4 0  9997,2 53254  53.2164 333.2911 0001496  91.5040 268.6123 15.08833624 87444,6917.9,95.438,540.8,538.73,0.0
53254.0,STARLINK-4134,PAYLOAD,2024-02-16 00:30:12,15.08834533,0.0001372,53.2165,332.9939,92.3734,267.7415,1.2852e-05,-8.3e-07,0.0,0 STARLINK-4134,1 53254U 22086N   24047.02097943 -.00000083  00000-0  12852-4 0  9992,2 53254  53.2165 332.9939 0001372  92.3734 267.7415 15.08834533 87256,6917.897,95.438,540.711,538.813,0.0
53254.0,STARLINK-4134,PAYLOAD,2024-02-16 11:37:54,15.08845996,0.0001693,53.2195,330.9124,93.2007,266.9179,6.892e-05,8.09e-06,0.0,0 STARLINK-4134,1 53254U 22086N   24047.48465324  .00000809  00000-0  68920-4 0  9996,2 53254  53.2195 330.9124 0001693  93.2007 266.9179 15.08845996 87323,6917.862,95.437,540.898,538.556,0.0
53254.0,STARLINK-4134,PAYLOAD,2024-02-17 01:56:22,15.08840894,0.0001551,53.2182,328.2369,82.3079,277.8089,0.00011146,1.486e-05,0.0,0 STARLINK-4134,1 53254U 22086N   24048.08081852  .00001486  00000-0  11146-3 0  9992,2 53254  53.2182 328.2369 0001551  82.3079 277.8089 15.08840894 87414,6917.878,95.437,540.816,538.67,0.0
53254.0,STARLINK-4134,PAYLOAD,2024-02-17 11:28:41,15.08844305,0.0001372,53.2174,326.4489,85.2704,274.8445,8.6553e-05,1.09e-05,0.0,0 STARLINK-4134,1 53254U 22086N   24048.47825475  .00001090  00000-0  86553-4 0  9998,2 53254  53.2174 326.4489 0001372  85.2704 274.8445 15.08844305 87678,6917.867,95.437,540.681,538.783,0.0
53254.0,STARLINK-4134,PAYLOAD,2024-02-17 22:36:23,15.08836965,0.0001636,53.2177,324.3701,90.7957,269.3223,5.8255e-05,6.39e-06,0.0,0 STARLINK-4134,1 53254U 22086N   24048.94194077  .00000639  00000-0  58255-4 0  9993,2 53254  53.2177 324.3701 0001636  90.7957 269.3223 15.08836965 87743,6917.89,95.438,540.886,538.623,0.0
53254.0,STARLINK-4134,PAYLOAD,2024-02-18 03:22:32,15.08853387,0.0001346,53.217,323.4764,91.0551,269.0595,0.00016895,2.403e-05,0.0,0 STARLINK-4134,1 53254U 22086N   24049.14065076  .00002403  00000-0  16895-3 0  9996,2 53254  53.2170 323.4764 0001346  91.0551 269.0595 15.08853387 87574,6917.839,95.437,540.636,538.773,0.0
53254.0,STARLINK-4134,PAYLOAD,2024-02-18 11:19:28,15.088464,0.0001923,53.218,321.99,79.6987,280.4222,8.5367e-05,1.071e-05,0.0,0 STARLINK-4134,1 53254U 22086N   24049.47185565  .00001071  00000-0  85367-4 0  9999,2 53254  53.2180 321.9900 0001923  79.6987 280.4222 15.08846400 87624,6917.861,95.437,541.056,538.396,0.0
53254.0,STARLINK-4134,PAYLOAD,2024-02-18 22:27:10,15.08843729,0.000206,53.2203,319.9065,79.7608,280.3616,0.00010099,1.32e-05,0.0,0 STARLINK-4134,1 53254U 22086N   24049.93553711  .00001320  00000-0  10099-3 0  9998,2 53254  53.2203 319.9065 0002060  79.7608 280.3616 15.08843729 87899,6917.869,95.437,541.159,538.309,0.0
53254.0,STARLINK-4134,PAYLOAD,2024-02-19 11:10:15,15.08839487,0.0001025,53.2181,317.5303,84.0464,276.0645,-1.9572e-05,-5.99e-06,0.0,0 STARLINK-4134,1 53254U 22086N   24050.46545425 -.00000599  00000-0 -19572-4 0  9996,2 53254  53.2181 317.5303 0001025  84.0464 276.0645 15.08839487 87779,6917.882,95.438,540.456,539.038,0.0
53254.0,STARLINK-4134,PAYLOAD,2024-02-19 22:17:57,15.08831971,0.0001505,53.2179,315.4487,96.3842,263.7321,-1.7874e-05,-5.72e-06,0.0,0 STARLINK-4134,1 53254U 22086N   24050.92914211 -.00000572  00000-0 -17874-4 0  9994,2 53254  53.2179 315.4487 0001505  96.3842 263.7321 15.08831971 88040,6917.905,95.438,540.811,538.729,0.0
